{
  "links" : {
    "next" : "https://api.nasa.gov/neo/rest/v1/feed?start_date=2014-04-23&end_date=2014-04-23&detailed=true&api_key=t0TVs3DtDT2H8Oy2Zy8m2eVrNsAVKAexjcZXUckd",
    "prev" : "https://api.nasa.gov/neo/rest/v1/feed?start_date=2014-04-21&end_date=2014-04-21&detailed=true&api_key=t0TVs3DtDT2H8Oy2Zy8m2eVrNsAVKAexjcZXUckd",
    "self" : "https://api.nasa.gov/neo/rest/v1/feed?start_date=2014-04-22&end_date=2014-04-22&detailed=true&api_key=t0TVs3DtDT2H8Oy2Zy8m2eVrNsAVKAexjcZXUckd"
  },
  "element_count" : 8,
  "near_earth_objects" : {
    "2014-04-22" : [ {
      "links" : {
        "self" : "https://api.nasa.gov/neo/rest/v1/neo/3670147?api_key=t0TVs3DtDT2H8Oy2Zy8m2eVrNsAVKAexjcZXUckd"
      },
      "neo_reference_id" : "3670147",
      "name" : "(2014 HD184)",
      "nasa_jpl_url" : "http://ssd.jpl.nasa.gov/sbdb.cgi?sstr=3670147",
      "absolute_magnitude_h" : 22.9,
      "estimated_diameter" : {
        "kilometers" : {
          "estimated_diameter_min" : 0.0699125232,
          "estimated_diameter_max" : 0.1563291544
        },
        "meters" : {
          "estimated_diameter_min" : 69.9125232246,
          "estimated_diameter_max" : 156.3291544087
        },
        "miles" : {
          "estimated_diameter_min" : 0.0434416145,
          "estimated_diameter_max" : 0.097138403
        },
        "feet" : {
          "estimated_diameter_min" : 229.3718026961,
          "estimated_diameter_max" : 512.8909429502
        }
      },
      "is_potentially_hazardous_asteroid" : false,
      "close_approach_data" : [ {
        "close_approach_date" : "2014-04-22",
        "epoch_date_close_approach" : 1398150000000,
        "relative_velocity" : {
          "kilometers_per_second" : "11.2414192967",
          "kilometers_per_hour" : "40469.1094680077",
          "miles_per_hour" : "25145.9308247184"
        },
        "miss_distance" : {
          "astronomical" : "0.2369877881",
          "lunar" : "92.1882476807",
          "kilometers" : "35452868",
          "miles" : "22029390"
        },
        "orbiting_body" : "Earth"
      } ],
      "orbital_data" : {
        "orbit_id" : "8",
        "orbit_determination_date" : "2017-04-06 08:41:14",
        "orbit_uncertainty" : "9",
        "minimum_orbit_intersection" : ".203907",
        "jupiter_tisserand_invariant" : "5.941",
        "epoch_osculation" : "2456777.5",
        "eccentricity" : ".3266482531581485",
        "semi_major_axis" : "1.009718458024641",
        "inclination" : "18.89301946726058",
        "ascending_node_longitude" : "226.9503025228826",
        "orbital_period" : "370.5944149272703",
        "perihelion_distance" : ".6798956875293527",
        "perihelion_argument" : "204.4847352006114",
        "aphelion_distance" : "1.339541228519929",
        "perihelion_time" : "2456651.122901267063",
        "mean_anomaly" : "122.7642773644765",
        "mean_motion" : ".9714123729324158",
        "equinox" : "J2000"
      }
    }, {
      "links" : {
        "self" : "https://api.nasa.gov/neo/rest/v1/neo/3720004?api_key=t0TVs3DtDT2H8Oy2Zy8m2eVrNsAVKAexjcZXUckd"
      },
      "neo_reference_id" : "3720004",
      "name" : "(2015 KS120)",
      "nasa_jpl_url" : "http://ssd.jpl.nasa.gov/sbdb.cgi?sstr=3720004",
      "absolute_magnitude_h" : 25.4,
      "estimated_diameter" : {
        "kilometers" : {
          "estimated_diameter_min" : 0.022108281,
          "estimated_diameter_max" : 0.0494356193
        },
        "meters" : {
          "estimated_diameter_min" : 22.1082810359,
          "estimated_diameter_max" : 49.435619262
        },
        "miles" : {
          "estimated_diameter_min" : 0.0137374447,
          "estimated_diameter_max" : 0.0307178602
        },
        "feet" : {
          "estimated_diameter_min" : 72.5337327539,
          "estimated_diameter_max" : 162.1903570994
        }
      },
      "is_potentially_hazardous_asteroid" : false,
      "close_approach_data" : [ {
        "close_approach_date" : "2014-04-22",
        "epoch_date_close_approach" : 1398150000000,
        "relative_velocity" : {
          "kilometers_per_second" : "6.3025207659",
          "kilometers_per_hour" : "22689.0747571857",
          "miles_per_hour" : "14098.108701208"
        },
        "miss_distance" : {
          "astronomical" : "0.0972814422",
          "lunar" : "37.8424797058",
          "kilometers" : "14553097",
          "miles" : "9042875"
        },
        "orbiting_body" : "Earth"
      } ],
      "orbital_data" : {
        "orbit_id" : "5",
        "orbit_determination_date" : "2017-04-06 08:33:30",
        "orbit_uncertainty" : "5",
        "minimum_orbit_intersection" : ".0793883",
        "jupiter_tisserand_invariant" : "6.140",
        "epoch_osculation" : "2458000.5",
        "eccentricity" : ".1381437151559359",
        "semi_major_axis" : ".9835858827269298",
        "inclination" : "9.339441245642883",
        "ascending_node_longitude" : "234.5894684409763",
        "orbital_period" : "356.300848824915",
        "perihelion_distance" : ".847709674712101",
        "perihelion_argument" : "208.3038885317915",
        "aphelion_distance" : "1.119462090741759",
        "perihelion_time" : "2458084.176716119889",
        "mean_anomaly" : "275.4545438145653",
        "mean_motion" : "1.010382100371876",
        "equinox" : "J2000"
      }
    } ]
  }
}